start=new Date('2022-10-09T00:00:00.000Z').valueOf();
sats=[{"FILE":"3596390","SEMIMAJOR_AXIS":"6925.359","REV_AT_EPOCH":"14163","REF_FRAME":"TEME","MEAN_MOTION_DDOT":"0.0000000000000","RCS_SIZE":"LARGE","CENTER_NAME":"EARTH","OBJECT_ID":"2020-019AK","MEAN_ANOMALY":"316.9057","LAUNCH_DATE":"2020-03-18","ECCENTRICITY":"0.00018590","EPOCH":"2022-10-08T11:31:13.817856","MEAN_ELEMENT_THEORY":"SGP4","APOAPSIS":"548.511","CLASSIFICATION_TYPE":"U","PERIOD":"95.592","ELEMENT_SET_NO":"999","MEAN_MOTION":"15.06396698","TLE_LINE1":"1 45393U 20019AK  22281.48002104  .00001354  00000-0  10978-3 0  9991","GP_ID":"214472277","BSTAR":"0.00010978000000","TIME_SYSTEM":"UTC","PERIAPSIS":"545.936","SITE":"AFETR","TLE_LINE2":"2 45393  53.0557 350.0502 0001859  43.2077 316.9057 15.06396698141631","NORAD_CAT_ID":"45393","OBJECT_NAME":"STARLINK-1291","RA_OF_ASC_NODE":"350.0502","EPHEMERIS_TYPE":"0","MEAN_MOTION_DOT":"0.00001354","COUNTRY_CODE":"US","ARG_OF_PERICENTER":"43.2077","DECAY_DATE":null,"OBJECT_TYPE":"PAYLOAD","INCLINATION":"53.0557"},{"NORAD_CAT_ID":"45394","TLE_LINE2":"2 45394  53.0552 350.2294 0001528  64.5575 295.5572 15.06388702141607","SITE":"AFETR","PERIAPSIS":"546.190","TIME_SYSTEM":"UTC","BSTAR":"0.00002364500000","GP_ID":"214472528","INCLINATION":"53.0552","OBJECT_TYPE":"PAYLOAD","DECAY_DATE":null,"COUNTRY_CODE":"US","MEAN_MOTION_DOT":"0.00000071","ARG_OF_PERICENTER":"64.5575","EPHEMERIS_TYPE":"0","RA_OF_ASC_NODE":"350.2294","OBJECT_NAME":"STARLINK-1292","ECCENTRICITY":"0.00015280","LAUNCH_DATE":"2020-03-18","CENTER_NAME":"EARTH","MEAN_ANOMALY":"295.5572","OBJECT_ID":"2020-019AL","RCS_SIZE":"LARGE","MEAN_MOTION_DDOT":"0.0000000000000","REF_FRAME":"TEME","REV_AT_EPOCH":"14160","SEMIMAJOR_AXIS":"6925.383","FILE":"3596390","TLE_LINE1":"1 45394U 20019AL  22281.44317910  .00000071  00000-0  23645-4 0  9993","MEAN_MOTION":"15.06388702","ELEMENT_SET_NO":"999","PERIOD":"95.593","CLASSIFICATION_TYPE":"U","APOAPSIS":"548.306","MEAN_ELEMENT_THEORY":"SGP4","EPOCH":"2022-10-08T10:38:10.674240"},{"OBJECT_ID":"2020-019AM","CENTER_NAME":"EARTH","MEAN_ANOMALY":"300.4407","RCS_SIZE":"LARGE","ECCENTRICITY":"0.00015410","LAUNCH_DATE":"2020-03-18","FILE":"3596607","MEAN_MOTION_DDOT":"0.0000000000000","REF_FRAME":"TEME","REV_AT_EPOCH":"14108","SEMIMAJOR_AXIS":"6925.356","ELEMENT_SET_NO":"999","PERIOD":"95.592","TLE_LINE1":"1 45395U 20019AM  22281.67170095  .00000189  00000-0  31583-4 0  9990","MEAN_MOTION":"15.06397730","MEAN_ELEMENT_THEORY":"SGP4","EPOCH":"2022-10-08T16:07:14.962080","CLASSIFICATION_TYPE":"U","APOAPSIS":"548.288","SITE":"AFETR","PERIAPSIS":"546.153","NORAD_CAT_ID":"45395","TLE_LINE2":"2 45395  53.0574 349.1836 0001541  59.6734 300.4407 15.06397730141084","TIME_SYSTEM":"UTC","BSTAR":"0.00003158300000","GP_ID":"214503223","DECAY_DATE":null,"OBJECT_TYPE":"PAYLOAD","COUNTRY_CODE":"US","ARG_OF_PERICENTER":"59.6734","MEAN_MOTION_DOT":"0.00000189","INCLINATION":"53.0574","RA_OF_ASC_NODE":"349.1836","OBJECT_NAME":"STARLINK-1297","EPHEMERIS_TYPE":"0"},{"OBJECT_NAME":"STARLINK-1303","RA_OF_ASC_NODE":"349.8634","EPHEMERIS_TYPE":"0","MEAN_MOTION_DOT":"0.00017567","COUNTRY_CODE":"US","ARG_OF_PERICENTER":"53.2332","DECAY_DATE":null,"OBJECT_TYPE":"PAYLOAD","INCLINATION":"53.0549","GP_ID":"214503972","TIME_SYSTEM":"UTC","BSTAR":"0.00119540000000","PERIAPSIS":"546.238","SITE":"AFETR","TLE_LINE2":"2 45396  53.0549 349.8634 0001424  53.2332 306.8787 15.06396548141597","NORAD_CAT_ID":"45396","EPOCH":"2022-10-08T12:29:37.682592","MEAN_ELEMENT_THEORY":"SGP4","CLASSIFICATION_TYPE":"U","APOAPSIS":"548.210","ELEMENT_SET_NO":"999","PERIOD":"95.592","MEAN_MOTION":"15.06396548","TLE_LINE1":"1 45396U 20019AN  22281.52057503  .00017567  00000-0  11954-2 0  9999","FILE":"3596607","REV_AT_EPOCH":"14159","SEMIMAJOR_AXIS":"6925.359","MEAN_MOTION_DDOT":"0.0000000000000","REF_FRAME":"TEME","RCS_SIZE":"LARGE","OBJECT_ID":"2020-019AN","CENTER_NAME":"EARTH","MEAN_ANOMALY":"306.8787","LAUNCH_DATE":"2020-03-18","ECCENTRICITY":"0.00014240"},{"MEAN_MOTION":"15.06403416","TLE_LINE1":"1 45397U 20019AP  22281.59797301  .00001120  00000-0  94087-4 0  9992","PERIOD":"95.592","ELEMENT_SET_NO":"999","CLASSIFICATION_TYPE":"U","APOAPSIS":"548.407","EPOCH":"2022-10-08T14:21:04.868064","MEAN_ELEMENT_THEORY":"SGP4","LAUNCH_DATE":"2020-03-18","ECCENTRICITY":"0.00017390","RCS_SIZE":"LARGE","OBJECT_ID":"2020-019AP","MEAN_ANOMALY":"310.7365","CENTER_NAME":"EARTH","REV_AT_EPOCH":"14171","SEMIMAJOR_AXIS":"6925.338","MEAN_MOTION_DDOT":"0.0000000000000","REF_FRAME":"TEME","FILE":"3596607","INCLINATION":"53.0550","ARG_OF_PERICENTER":"49.3775","COUNTRY_CODE":"US","MEAN_MOTION_DOT":"0.00001120","DECAY_DATE":null,"OBJECT_TYPE":"PAYLOAD","EPHEMERIS_TYPE":"0","OBJECT_NAME":"STARLINK-1307","RA_OF_ASC_NODE":"349.5097","TLE_LINE2":"2 45397  53.0550 349.5097 0001739  49.3775 310.7365 15.06403416141719","NORAD_CAT_ID":"45397","PERIAPSIS":"545.999","SITE":"AFETR","GP_ID":"214502720","BSTAR":"0.00009408700000","TIME_SYSTEM":"UTC"},{"ARG_OF_PERICENTER":"67.8903","COUNTRY_CODE":"US","MEAN_MOTION_DOT":"0.00001647","DECAY_DATE":null,"OBJECT_TYPE":"PAYLOAD","INCLINATION":"53.0570","OBJECT_NAME":"STARLINK-1312","RA_OF_ASC_NODE":"349.2600","EPHEMERIS_TYPE":"0","PERIAPSIS":"546.204","SITE":"AFETR","TLE_LINE2":"2 45398  53.0570 349.2600 0001469  67.8903 292.2242 15.06397395141656","NORAD_CAT_ID":"45398","GP_ID":"214502474","TIME_SYSTEM":"UTC","BSTAR":"0.00012945000000","ELEMENT_SET_NO":"999","PERIOD":"95.592","MEAN_MOTION":"15.06397395","TLE_LINE1":"1 45398U 20019AQ  22281.65696357  .00001647  00000-0  12945-3 0  9995","EPOCH":"2022-10-08T15:46:01.652448","MEAN_ELEMENT_THEORY":"SGP4","CLASSIFICATION_TYPE":"U","APOAPSIS":"548.239","RCS_SIZE":"LARGE","MEAN_ANOMALY":"292.2242","CENTER_NAME":"EARTH","OBJECT_ID":"2020-019AQ","LAUNCH_DATE":"2020-03-18","ECCENTRICITY":"0.00014690","FILE":"3596607","REV_AT_EPOCH":"14165","SEMIMAJOR_AXIS":"6925.357","MEAN_MOTION_DDOT":"0.0000000000000","REF_FRAME":"TEME"},{"TLE_LINE1":"1 45399U 20019AR  22281.63207726 -.00000305  00000-0 -15379-5 0  9990","MEAN_MOTION":"15.06397543","ELEMENT_SET_NO":"999","PERIOD":"95.592","APOAPSIS":"548.564","CLASSIFICATION_TYPE":"U","MEAN_ELEMENT_THEORY":"SGP4","EPOCH":"2022-10-08T15:10:11.475264","ECCENTRICITY":"0.00019390","LAUNCH_DATE":"2020-03-18","MEAN_ANOMALY":"312.6781","CENTER_NAME":"EARTH","OBJECT_ID":"2020-019AR","RCS_SIZE":"LARGE","REF_FRAME":"TEME","MEAN_MOTION_DDOT":"0.0000000000000","SEMIMAJOR_AXIS":"6925.356","REV_AT_EPOCH":"14184","FILE":"3596607","INCLINATION":"53.0563","DECAY_DATE":null,"OBJECT_TYPE":"PAYLOAD","MEAN_MOTION_DOT":"-0.00000305","COUNTRY_CODE":"US","ARG_OF_PERICENTER":"47.4371","EPHEMERIS_TYPE":"0","RA_OF_ASC_NODE":"339.3554","OBJECT_NAME":"STARLINK-1255","NORAD_CAT_ID":"45399","TLE_LINE2":"2 45399  53.0563 339.3554 0001939  47.4371 312.6781 15.06397543141843","SITE":"AFETR","PERIAPSIS":"545.878","TIME_SYSTEM":"UTC","BSTAR":"-0.00000153790000","GP_ID":"214503722"},{"MEAN_ELEMENT_THEORY":"SGP4","EPOCH":"2022-10-08T13:55:52.969152","CLASSIFICATION_TYPE":"U","APOAPSIS":"548.373","ELEMENT_SET_NO":"999","PERIOD":"95.593","TLE_LINE1":"1 45400U 20019AS  22281.58047418 -.00000264  00000-0  11719-5 0  9994","MEAN_MOTION":"15.06393756","FILE":"3596607","MEAN_MOTION_DDOT":"0.0000000000000","REF_FRAME":"TEME","REV_AT_EPOCH":"14176","SEMIMAJOR_AXIS":"6925.368","CENTER_NAME":"EARTH","MEAN_ANOMALY":"306.5154","OBJECT_ID":"2020-019AS","RCS_SIZE":"LARGE","ECCENTRICITY":"0.00016470","LAUNCH_DATE":"2020-03-18","RA_OF_ASC_NODE":"339.5987","OBJECT_NAME":"STARLINK-1213","EPHEMERIS_TYPE":"0","DECAY_DATE":null,"OBJECT_TYPE":"PAYLOAD","COUNTRY_CODE":"US","MEAN_MOTION_DOT":"-0.00000264","ARG_OF_PERICENTER":"53.5987","INCLINATION":"53.0569","TIME_SYSTEM":"UTC","BSTAR":"0.00000117190000","GP_ID":"214503473","SITE":"AFETR","PERIAPSIS":"546.092","NORAD_CAT_ID":"45400","TLE_LINE2":"2 45400  53.0569 339.5987 0001647  53.5987 306.5154 15.06393756141760"},{"LAUNCH_DATE":"2020-03-18","ECCENTRICITY":"0.00017340","RCS_SIZE":"LARGE","MEAN_ANOMALY":"310.0352","CENTER_NAME":"EARTH","OBJECT_ID":"2020-019AT","REV_AT_EPOCH":"14180","SEMIMAJOR_AXIS":"6925.379","MEAN_MOTION_DDOT":"0.0000000000000","REF_FRAME":"TEME","FILE":"3596390","MEAN_MOTION":"15.06389931","TLE_LINE1":"1 45401U 20019AT  22281.37775194 -.00002546  00000-0 -15212-3 0  9997","ELEMENT_SET_NO":"999","PERIOD":"95.593","CLASSIFICATION_TYPE":"U","APOAPSIS":"548.445","EPOCH":"2022-10-08T09:03:57.767616","MEAN_ELEMENT_THEORY":"SGP4","TLE_LINE2":"2 45401  53.0552 340.5196 0001734  50.0789 310.0352 15.06389931141801","NORAD_CAT_ID":"45401","PERIAPSIS":"546.044","SITE":"AFETR","GP_ID":"214472278","BSTAR":"-0.00015212000000","TIME_SYSTEM":"UTC","INCLINATION":"53.0552","COUNTRY_CODE":"US","ARG_OF_PERICENTER":"50.0789","MEAN_MOTION_DOT":"-0.00002546","DECAY_DATE":null,"OBJECT_TYPE":"PAYLOAD","EPHEMERIS_TYPE":"0","OBJECT_NAME":"STARLINK-1256","RA_OF_ASC_NODE":"340.5196"},{"MEAN_MOTION_DDOT":"0.0000000000000","REF_FRAME":"TEME","REV_AT_EPOCH":"14182","SEMIMAJOR_AXIS":"6925.364","FILE":"3596390","ECCENTRICITY":"0.00016690","LAUNCH_DATE":"2020-03-18","OBJECT_ID":"2020-019AU","CENTER_NAME":"EARTH","MEAN_ANOMALY":"300.4354","RCS_SIZE":"LARGE","CLASSIFICATION_TYPE":"U","APOAPSIS":"548.385","MEAN_ELEMENT_THEORY":"SGP4","EPOCH":"2022-10-08T10:32:49.740576","TLE_LINE1":"1 45402U 20019AU  22281.43946459  .00001387  00000-0  11199-3 0  9999","MEAN_MOTION":"15.06394838","ELEMENT_SET_NO":"999","PERIOD":"95.592","BSTAR":"0.00011199000000","TIME_SYSTEM":"UTC","GP_ID":"214472529","NORAD_CAT_ID":"45402","TLE_LINE2":"2 45402  53.0562 340.2242 0001669  59.6800 300.4354 15.06394838141827","SITE":"AFETR","PERIAPSIS":"546.074","EPHEMERIS_TYPE":"0","RA_OF_ASC_NODE":"340.2242","OBJECT_NAME":"STARLINK-1257","INCLINATION":"53.0562","OBJECT_TYPE":"PAYLOAD","DECAY_DATE":null,"COUNTRY_CODE":"US","MEAN_MOTION_DOT":"0.00001387","ARG_OF_PERICENTER":"59.6800"}];
